OBJECT_NAME,OBJECT_ID,EPOCH,MEAN_MOTION,ECCENTRICITY,INCLINATION,RA_OF_ASC_NODE,ARG_OF_PERICENTER,MEAN_ANOMALY,EPHEMERIS_TYPE,CLASSIFICATION_TYPE,NORAD_CAT_ID,ELEMENT_SET_NO,REV_AT_EPOCH,BSTAR,MEAN_MOTION_DOT,MEAN_MOTION_DDOT
TROPICS-03,2023-073B,2024-08-22T07:17:02.600448,15.20929249,.0010089,32.7359,200.9501,250.6508,109.3074,0,U,56753,999,6878,.12959E-2,.29601E-3,0
TROPICS-07,2023-073C,2024-08-22T07:01:36.813216,15.23389496,.001309,32.7345,193.9961,257.1263,102.7949,0,U,56754,999,6887,.13003E-2,.31984E-3,0
KONDOR FKA NO.1,2023-074A,2024-08-22T10:48:43.978464,15.19750010,.0001704,97.4392,68.5606,82.5182,277.6246,0,U,56756,999,6888,.55238E-3,.11754E-3,0
ARABSAT-7B (BADR-8),2023-075A,2024-08-21T20:32:42.594720,1.00271846,.000224,0.0725,24.0031,7.9046,272.9174,0,U,56757,999,447,0,.137E-5,0
IRNSS-1J (NVS-01),2023-076A,2024-08-22T13:56:25.071072,1.00268058,.000527,3.8321,264.6876,348.6296,56.6729,0,U,56759,999,455,0,-.346E-5,0
STARLINK-6197,2023-078A,2024-08-22T16:29:08.534112,14.98342446,.0002882,70.0035,346.5619,266.3819,93.7011,0,U,56767,999,6796,.26843E-3,.3112E-4,0
STARLINK-6198,2023-078B,2024-08-22T14:40:17.890752,14.98343861,.000322,69.9993,306.5628,271.1837,88.8953,0,U,56768,999,6894,-.11117E-4,-.226E-5,0
STARLINK-5978,2023-078C,2024-08-22T16:17:07.412064,14.98332214,.0003521,70.0009,346.5281,267.5479,92.5277,0,U,56769,999,6796,.35033E-4,.325E-5,0
STARLINK-6339,2023-078E,2024-08-22T13:51:56.118240,14.98337145,.0002967,69.9982,286.9392,268.7833,91.2986,0,U,56771,999,6916,.38748E-4,.369E-5,0
STARLINK-6275,2023-078F,2024-08-22T16:11:09.071520,14.98349732,.000305,70.0038,346.5150,274.1662,85.9148,0,U,56772,999,6796,.25693E-2,.30714E-3,0
STARLINK-6296,2023-078G,2024-08-22T13:46:09.366528,14.98326728,.0002822,69.9991,286.9423,276.9354,83.1484,0,U,56773,999,6916,-.26659E-3,-.3272E-4,0
STARLINK-6190,2023-078H,2024-08-22T17:29:26.877984,14.98344767,.0003366,70.0023,346.3067,273.5809,86.4965,0,U,56774,999,6797,.28667E-3,.333E-4,0
STARLINK-6292,2023-078J,2024-08-22T18:00:00.999648,14.98353278,.0003157,69.9987,286.4954,272.7871,318.7921,0,U,56775,999,6945,-.37802E-2,-.44938E-3,0
STARLINK-6274,2023-078K,2024-08-22T14:22:18.968160,14.98336303,.0002637,70.0015,306.9140,265.3547,94.7311,0,U,56776,999,6867,.16614E-3,.189E-4,0
STARLINK-5582,2023-078L,2024-08-22T16:34:50.047392,14.98350594,.0002979,70.0024,326.7031,268.7053,91.3765,0,U,56777,999,6845,.10028E-2,.11899E-3,0
STARLINK-6304,2023-078M,2024-08-22T14:16:18.018336,14.98335371,.0002951,70.0002,306.8976,268.1121,91.9700,0,U,56778,999,6893,.45091E-4,.445E-5,0
STARLINK-6231,2023-078N,2024-08-22T13:40:14.396448,14.98332080,.0002604,70.0004,306.8106,264.9618,95.1243,0,U,56779,999,6866,-.38527E-4,-.553E-5,0
STARLINK-5963,2023-078P,2024-08-22T15:47:48.609600,14.99138183,.0002789,70.0011,326.6056,262.1944,97.8899,0,U,56780,999,6845,.92283E-4,.1031E-4,0
STARLINK-5989,2023-078Q,2024-08-22T16:04:47.351136,14.98342932,.0002648,70.0016,326.6298,257.1966,102.8898,0,U,56781,999,6845,.16759E-3,.1908E-4,0
STARLINK-6352,2023-078R,2024-08-22T14:10:17.032224,14.98340086,.0002995,70.0002,306.8829,267.5095,92.5721,0,U,56782,999,6893,.57743E-4,.596E-5,0
STARLINK-6357,2023-078S,2024-08-22T13:58:16.074336,14.98337876,.0002737,70.0007,306.8543,269.6571,90.4274,0,U,56783,999,6867,.18538E-5,-.71E-6,0
STARLINK-6354,2023-078T,2024-08-22T14:04:16.769280,14.98337232,.0002817,70.0005,306.8698,266.4899,93.5937,0,U,56784,999,6867,.14615E-4,.81E-6,0
STARLINK-5931,2023-078U,2024-08-22T16:16:47.841600,14.98343641,.0002694,70.0022,326.6606,265.2974,94.7877,0,U,56785,999,6845,.21139E-3,.2431E-4,0
STARLINK-6341,2023-078V,2024-08-22T13:52:15.497760,14.98339123,.000266,70.0006,306.8406,268.0138,92.0716,0,U,56786,999,6867,.10512E-3,.1162E-4,0
STARLINK-6326,2023-078W,2024-08-22T13:16:11.466336,14.98342822,.0002908,70.0002,306.7536,268.9133,91.1693,0,U,56787,999,6867,.15973E-3,.1814E-4,0
