56753,TROPICS-03,2023,94.68,-1.0,+,32.74,Active,0,LEO,New Zealand,USA,Unknown,Unknown,Unknown,1 56753U 23073B   24235.30350232  .00029601  00000+0  12959-2 0  9990,2 56753  32.7359 200.9501 0010089 250.6508 109.3074 15.20929249 68784,15.20929249,0.0010089,LEO
56754,TROPICS-07,2023,94.53,-1.0,+,32.73,Active,0,LEO,New Zealand,USA,Unknown,Unknown,Unknown,1 56754U 23073C   24235.29278719  .00031984  00000+0  13003-2 0  9996,2 56754  32.7345 193.9961 0013090 257.1263 102.7949 15.23389496 68871,15.23389496,0.001309,LEO
56756,KONDOR FKA NO.1,2023,94.75,-1.0,+,97.44,Active,0,LEO,Russia,Russia/USSR,Unknown,Unknown,Unknown,1 56756U 23074A   24235.45050901  .00011754  00000+0  55238-3 0  9998,2 56756  97.4392  68.5606 0001704  82.5182 277.6246 15.19750010 68887,15.1975001,0.0001704,LEO
56757,ARABSAT-7B (BADR-8),2023,1436.1,-1.0,+,0.07,Active,0,GSO,USA,Arabsat,Unknown,Unknown,Unknown,1 56757U 23075A   24234.85604855  .00000137  00000+0  00000+0 0  9992,2 56757   0.0725  24.0031 0002240   7.9046 272.9174  1.00271846  4476,1.00271846,0.000224,GEO
56759,IRNSS-1J (NVS-01),2023,1436.15,-1.0,+,3.83,Active,0,GSO,India,India,Unknown,Unknown,GSLV,1 56759U 23076A   24235.58084573 -.00000346  00000+0  00000+0 0  9998,2 56759   3.8321 264.6876 0005270 348.6296  56.6729  1.00268058  4551,1.00268058,0.000527,GSO
56767,STARLINK-6197,2023,96.11,-1.0,+,70.0,Active,0,LEO,USA,USA,Unknown,Unknown,Unknown,1 56767U 23078A   24235.68690433  .00003112  00000+0  26843-3 0  9998,2 56767  70.0035 346.5619 0002882 266.3819  93.7011 14.98342446 67961,14.98342446,0.0002882,LEO
56768,STARLINK-6198,2023,96.11,-1.0,+,70.0,Active,0,LEO,USA,USA,Unknown,Unknown,Unknown,1 56768U 23078B   24235.61131818 -.00000226  00000+0 -11117-4 0  9993,2 56768  69.9993 306.5628 0003220 271.1837  88.8953 14.98343861 68940,14.98343861,0.000322,LEO
56769,STARLINK-5978,2023,96.11,-1.0,+,70.0,Active,0,LEO,USA,USA,Unknown,Unknown,Unknown,1 56769U 23078C   24235.67855801  .00000325  00000+0  35033-4 0  9996,2 56769  70.0009 346.5281 0003521 267.5479  92.5277 14.98332214 67968,14.98332214,0.0003521,LEO
56771,STARLINK-6339,2023,96.11,-1.0,+,70.0,Active,0,LEO,USA,USA,Unknown,Unknown,Unknown,1 56771U 23078E   24235.57773285  .00000369  00000+0  38748-4 0  9997,2 56771  69.9982 286.9392 0002967 268.7833  91.2986 14.98337145 69163,14.98337145,0.0002967,LEO
56772,STARLINK-6275,2023,96.11,-1.0,+,70.0,Active,0,LEO,USA,USA,Unknown,Unknown,Unknown,1 56772U 23078F   24235.67441055  .00030714  00000+0  25693-2 0  9996,2 56772  70.0038 346.5150 0003050 274.1662  85.9148 14.98349732 67960,14.98349732,0.000305,LEO
56773,STARLINK-6296,2023,96.11,-1.0,+,70.0,Active,0,LEO,USA,USA,Unknown,Unknown,Unknown,1 56773U 23078G   24235.57371952 -.00003272  00000+0 -26659-3 0  9999,2 56773  69.9991 286.9423 0002822 276.9354  83.1484 14.98326728 69167,14.98326728,0.0002822,LEO
56774,STARLINK-6190,2023,96.11,-1.0,+,70.0,Active,0,LEO,USA,USA,Unknown,Unknown,Unknown,1 56774U 23078H   24235.72878331  .00003330  00000+0  28667-3 0  9994,2 56774  70.0023 346.3067 0003366 273.5809  86.4965 14.98344767 67974,14.98344767,0.0003366,LEO
56775,STARLINK-6292,2023,96.11,-1.0,+,70.0,Active,0,LEO,USA,USA,Unknown,Unknown,Unknown,1 56775U 23078J   24235.75001157 -.00044938  00000+0 -37802-2 0  9993,2 56775  69.9987 286.4954 0003157 272.7871 318.7921 14.98353278 69453,14.98353278,0.0003157,LEO
56776,STARLINK-6274,2023,96.11,-1.0,+,70.0,Active,0,LEO,USA,USA,Unknown,Unknown,Unknown,1 56776U 23078K   24235.59883065  .00001890  00000+0  16614-3 0  9999,2 56776  70.0015 306.9140 0002637 265.3547  94.7311 14.98336303 68671,14.98336303,0.0002637,LEO
56777,STARLINK-5582,2023,96.11,-1.0,+,70.0,Active,0,LEO,USA,USA,Unknown,Unknown,Unknown,1 56777U 23078L   24235.69085703  .00011899  00000+0  10028-2 0  9996,2 56777  70.0024 326.7031 0002979 268.7053  91.3765 14.98350594 68459,14.98350594,0.0002979,LEO
56778,STARLINK-6304,2023,96.11,-1.0,+,70.0,Active,0,LEO,USA,USA,Unknown,Unknown,Unknown,1 56778U 23078M   24235.59465299  .00000445  00000+0  45091-4 0  9993,2 56778  70.0002 306.8976 0002951 268.1121  91.9700 14.98335371 68937,14.98335371,0.0002951,LEO
56779,STARLINK-6231,2023,96.11,-1.0,+,70.0,Active,0,LEO,USA,USA,Unknown,Unknown,Unknown,1 56779U 23078N   24235.56961107 -.00000553  00000+0 -38527-4 0  9998,2 56779  70.0004 306.8106 0002604 264.9618  95.1243 14.98332080 68667,14.9833208,0.0002604,LEO
56780,STARLINK-5963,2023,96.06,-1.0,+,70.0,Active,0,LEO,USA,USA,Unknown,Unknown,Unknown,1 56780U 23078P   24235.65820150  .00001031  00000+0  92283-4 0  9991,2 56780  70.0011 326.6056 0002789 262.1944  97.8899 14.99138183 68459,14.99138183,0.0002789,LEO
56781,STARLINK-5989,2023,96.11,-1.0,+,70.0,Active,0,LEO,USA,USA,Unknown,Unknown,Unknown,1 56781U 23078Q   24235.66999249  .00001908  00000+0  16759-3 0  9995,2 56781  70.0016 326.6298 0002648 257.1966 102.8898 14.98342932 68459,14.98342932,0.0002648,LEO
56782,STARLINK-6352,2023,96.11,-1.0,+,70.0,Active,0,LEO,USA,USA,Unknown,Unknown,Unknown,1 56782U 23078R   24235.59047491  .00000596  00000+0  57743-4 0  9992,2 56782  70.0002 306.8829 0002995 267.5095  92.5721 14.98340086 68939,14.98340086,0.0002995,LEO
56783,STARLINK-6357,2023,96.11,-1.0,+,70.0,Active,0,LEO,USA,USA,Unknown,Unknown,Unknown,1 56783U 23078S   24235.58213049 -.00000071  00000+0  18538-5 0  9995,2 56783  70.0007 306.8543 0002737 269.6571  90.4274 14.98337876 68678,14.98337876,0.0002737,LEO
56784,STARLINK-6354,2023,96.11,-1.0,+,70.0,Active,0,LEO,USA,USA,Unknown,Unknown,Unknown,1 56784U 23078T   24235.58630520  .00000081  00000+0  14615-4 0  9994,2 56784  70.0005 306.8698 0002817 266.4899  93.5937 14.98337232 68671,14.98337232,0.0002817,LEO
56785,STARLINK-5931,2023,96.11,-1.0,+,70.0,Active,0,LEO,USA,USA,Unknown,Unknown,Unknown,1 56785U 23078U   24235.67833150  .00002431  00000+0  21139-3 0  9998,2 56785  70.0022 326.6606 0002694 265.2974  94.7877 14.98343641 68457,14.98343641,0.0002694,LEO
56786,STARLINK-6341,2023,96.11,-1.0,+,70.0,Active,0,LEO,USA,USA,Unknown,Unknown,Unknown,1 56786U 23078V   24235.57795715  .00001162  00000+0  10512-3 0  9995,2 56786  70.0006 306.8406 0002660 268.0138  92.0716 14.98339123 68671,14.98339123,0.000266,LEO
56787,STARLINK-6326,2023,96.11,-1.0,+,70.0,Active,0,LEO,USA,USA,Unknown,Unknown,Unknown,1 56787U 23078W   24235.55291049  .00001814  00000+0  15973-3 0  9995,2 56787  70.0002 306.7536 0002908 268.9133  91.1693 14.98342822 68674,14.98342822,0.0002908,LEO
